{"type": "FeatureCollection", "features": [ {"type": "Feature", "properties": {"norad_id": 43010, "name": "FENGYUN 3D", "group": "weather", "lat": -51.873393493435806, "lon": -25.66881681870164, "alt_km": 834.2110193886838, "timestamp": "2025-12-22T05:49:03.124866+00:00", "meta": {"OBJECT_NAME": "FENGYUN 3D", "OBJECT_ID": "2017-072A", "EPOCH": "2025-12-21T21:36:30.748032", "MEAN_MOTION": 14.19686629, "ECCENTRICITY": 0.0001402, "INCLINATION": 98.99, "RA_OF_ASC_NODE": 322.3475, "ARG_OF_PERICENTER": 155.9137, "MEAN_ANOMALY": 204.2104, "EPHEMERIS_TYPE": 0, "CLASSIFICATION_TYPE": "U", "NORAD_CAT_ID": 43010, "ELEMENT_SET_NO": 999, "REV_AT_EPOCH": 41983, "BSTAR": 0.00010814, "MEAN_MOTION_DOT": 1.83e-06, "MEAN_MOTION_DDOT": 0}, "tle": {"line1": "1 43010U 17072A   25355.90035588  .00000183  00000+0  10814-3 0  9991", "line2": "2 43010  98.9900 322.3475 0001402 155.9137 204.2104 14.19686629419839"}}, "geometry": {"type": "Point", "coordinates": [-25.66881681870164, -51.873393493435806]}}, {"type": "Feature", "properties": {"norad_id": 43013, "name": "NOAA 20 (JPSS-1)", "group": "weather", "lat": 80.35890325001641, "lon": 177.63893105208834, "alt_km": 818.0956830230116, "timestamp": "2025-12-22T05:49:03.124879+00:00", "meta": {"OBJECT_NAME": "NOAA 20 (JPSS-1)", "OBJECT_ID": "2017-073A", "EPOCH": "2025-12-21T19:13:35.427936", "MEAN_MOTION": 14.19527965, "ECCENTRICITY": 0.0002117, "INCLINATION": 98.7612, "RA_OF_ASC_NODE": 291.9992, "ARG_OF_PERICENTER": 74.2593, "MEAN_ANOMALY": 285.8816, "EPHEMERIS_TYPE": 0, "CLASSIFICATION_TYPE": "U", "NORAD_CAT_ID": 43013, "ELEMENT_SET_NO": 999, "REV_AT_EPOCH": 41930, "BSTAR": 5.5517e-05, "MEAN_MOTION_DOT": 7.3e-07, "MEAN_MOTION_DDOT": 0}, "tle": {"line1": "1 43013U 17073A   25355.80110449  .00000073  00000+0  55517-4 0  9992", "line2": "2 43013  98.7612 291.9992 0002117  74.2593 285.8816 14.19527965419302"}}, "geometry": {"type": "Point", "coordinates": [177.63893105208834, 80.35890325001641]}}, {"type": "Feature", "properties": {"norad_id": 43226, "name": "GOES 17", "group": "weather", "lat": 0.023200979837175444, "lon": 88.80079068117577, "alt_km": 35799.39867699347, "timestamp": "2025-12-22T05:49:03.124893+00:00", "meta": {"OBJECT_NAME": "GOES 17", "OBJECT_ID": "2018-022A", "EPOCH": "2025-12-21T14:29:02.862240", "MEAN_MOTION": 1.00270386, "ECCENTRICITY": 0.000311, "INCLINATION": 0.4791, "RA_OF_ASC_NODE": 89.125, "ARG_OF_PERICENTER": 191.7261, "MEAN_ANOMALY": 297.3218, "EPHEMERIS_TYPE": 0, "CLASSIFICATION_TYPE": "U", "NORAD_CAT_ID": 43226, "ELEMENT_SET_NO": 999, "REV_AT_EPOCH": 2864, "BSTAR": 0, "MEAN_MOTION_DOT": -1.6e-06, "MEAN_MOTION_DDOT": 0}, "tle": {"line1": "1 43226U 18022A   25355.60350535 -.00000160  00000+0  00000+0 0  9993", "line2": "2 43226   0.4791  89.1250 0003110 191.7261 297.3218  1.00270386 28646"}}, "geometry": {"type": "Point", "coordinates": [88.80079068117577, 0.023200979837175444]}}, {"type": "Feature", "properties": {"norad_id": 43491, "name": "FENGYUN 2H", "group": "weather", "lat": 0.13630236453138686, "lon": -102.33465662397894, "alt_km": 35776.406999314066, "timestamp": "2025-12-22T05:49:03.124917+00:00", "meta": {"OBJECT_NAME": "FENGYUN 2H", "OBJECT_ID": "2018-050A", "EPOCH": "2025-12-21T20:25:22.168128", "MEAN_MOTION": 1.0027106, "ECCENTRICITY": 0.0002371, "INCLINATION": 2.5731, "RA_OF_ASC_NODE": 81.2342, "ARG_OF_PERICENTER": 166.0641, "MEAN_ANOMALY": 229.057, "EPHEMERIS_TYPE": 0, "CLASSIFICATION_TYPE": "U", "NORAD_CAT_ID": 43491, "ELEMENT_SET_NO": 999, "REV_AT_EPOCH": 2766, "BSTAR": 0, "MEAN_MOTION_DOT": -1.09e-06, "MEAN_MOTION_DDOT": 0}, "tle": {"line1": "1 43491U 18050A   25355.85095102 -.00000109  00000+0  00000+0 0  9994", "line2": "2 43491   2.5731  81.2342 0002371 166.0641 229.0570  1.00271060 27661"}}, "geometry": {"type": "Point", "coordinates": [-102.33465662397894, 0.13630236453138686]}}, {"type": "Feature", "properties": {"norad_id": 43689, "name": "METOP-C", "group": "weather", "lat": -57.12788342846685, "lon": 67.55796915232214, "alt_km": 827.2689260660709, "timestamp": "2025-12-22T05:49:03.124929+00:00", "meta": {"OBJECT_NAME": "METOP-C", "OBJECT_ID": "2018-087A", "EPOCH": "2025-12-21T18:15:55.622016", "MEAN_MOTION": 14.21487662, "ECCENTRICITY": 8.13e-05, "INCLINATION": 98.6916, "RA_OF_ASC_NODE": 53.3919, "ARG_OF_PERICENTER": 22.941, "MEAN_ANOMALY": 337.1803, "EPHEMERIS_TYPE": 0, "CLASSIFICATION_TYPE": "U", "NORAD_CAT_ID": 43689, "ELEMENT_SET_NO": 999, "REV_AT_EPOCH": 36962, "BSTAR": 7.7905e-05, "MEAN_MOTION_DOT": 1.27e-06, "MEAN_MOTION_DDOT": 0}, "tle": {"line1": "1 43689U 18087A   25355.76106044  .00000127  00000+0  77905-4 0  9993", "line2": "2 43689  98.6916  53.3919 0000813  22.9410 337.1803 14.21487662369623"}}, "geometry": {"type": "Point", "coordinates": [67.55796915232214, -57.12788342846685]}}, {"type": "Feature", "properties": {"norad_id": 43823, "name": "GEO-KOMPSAT-2A", "group": "weather", "lat": -0.023934651254320424, "lon": -53.430095462464095, "alt_km": 35788.03378401237, "timestamp": "2025-12-22T05:49:03.124941+00:00", "meta": {"OBJECT_NAME": "GEO-KOMPSAT-2A", "OBJECT_ID": "2018-100A", "EPOCH": "2025-12-21T17:13:54.575328", "MEAN_MOTION": 1.00270576, "ECCENTRICITY": 3.96e-05, "INCLINATION": 0.0512, "RA_OF_ASC_NODE": 130.9013, "ARG_OF_PERICENTER": 331.6915, "MEAN_ANOMALY": 14.6864, "EPHEMERIS_TYPE": 0, "CLASSIFICATION_TYPE": "U", "NORAD_CAT_ID": 43823, "ELEMENT_SET_NO": 999, "REV_AT_EPOCH": 2585, "BSTAR": 0, "MEAN_MOTION_DOT": -3.21e-06, "MEAN_MOTION_DDOT": 0}, "tle": {"line1": "1 43823U 18100A   25355.71799277 -.00000321  00000+0  00000+0 0  9994", "line2": "2 43823   0.0512 130.9013 0000396 331.6915  14.6864  1.00270576 25850"}}, "geometry": {"type": "Point", "coordinates": [-53.430095462464095, -0.023934651254320424]}}, {"type": "Feature", "properties": {"norad_id": 44387, "name": "METEOR-M2 2", "group": "weather", "lat": 66.26381536022949, "lon": 176.95715894931448, "alt_km": 803.2183597943895, "timestamp": "2025-12-22T05:49:03.124953+00:00", "meta": {"OBJECT_NAME": "METEOR-M2 2", "OBJECT_ID": "2019-038A", "EPOCH": "2025-12-21T20:51:48.178368", "MEAN_MOTION": 14.24294642, "ECCENTRICITY": 0.0001673, "INCLINATION": 98.8974, "RA_OF_ASC_NODE": 335.7097, "ARG_OF_PERICENTER": 130.2361, "MEAN_ANOMALY": 229.8964, "EPHEMERIS_TYPE": 0, "CLASSIFICATION_TYPE": "U", "NORAD_CAT_ID": 44387, "ELEMENT_SET_NO": 999, "REV_AT_EPOCH": 33605, "BSTAR": 2.5175e-05, "MEAN_MOTION_DOT": 1.2e-07, "MEAN_MOTION_DDOT": 0}, "tle": {"line1": "1 44387U 19038A   25355.86930762  .00000012  00000+0  25175-4 0  9994", "line2": "2 44387  98.8974 335.7097 0001673 130.2361 229.8964 14.24294642336055"}}, "geometry": {"type": "Point", "coordinates": [176.95715894931448, 66.26381536022949]}}, {"type": "Feature", "properties": {"norad_id": 47719, "name": "ARKTIKA-M 1", "group": "weather", "lat": 62.524487838974295, "lon": 159.10356068458546, "alt_km": 38788.97024557185, "timestamp": "2025-12-22T05:49:03.124968+00:00", "meta": {"OBJECT_NAME": "ARKTIKA-M 1", "OBJECT_ID": "2021-016A", "EPOCH": "2025-12-21T01:10:59.170944", "MEAN_MOTION": 2.00630317, "ECCENTRICITY": 0.7208476, "INCLINATION": 63.1763, "RA_OF_ASC_NODE": 82.8606, "ARG_OF_PERICENTER": 269.1559, "MEAN_ANOMALY": 15.5506, "EPHEMERIS_TYPE": 0, "CLASSIFICATION_TYPE": "U", "NORAD_CAT_ID": 47719, "ELEMENT_SET_NO": 999, "REV_AT_EPOCH": 3521, "BSTAR": 0, "MEAN_MOTION_DOT": -1e-06, "MEAN_MOTION_DDOT": 0}, "tle": {"line1": "1 47719U 21016A   25355.04929596 -.00000100  00000+0  00000+0 0  9992", "line2": "2 47719  63.1763  82.8606 7208476 269.1559  15.5506  2.00630317 35212"}}, "geometry": {"type": "Point", "coordinates": [159.10356068458546, 62.524487838974295]}}, {"type": "Feature", "properties": {"norad_id": 49008, "name": "FENGYUN 3E", "group": "weather", "lat": -76.40720573695509, "lon": 36.19922559272884, "alt_km": 832.9458438766142, "timestamp": "2025-12-22T05:49:03.124980+00:00", "meta": {"OBJECT_NAME": "FENGYUN 3E", "OBJECT_ID": "2021-062A", "EPOCH": "2025-12-21T20:02:39.698016", "MEAN_MOTION": 14.19881497, "ECCENTRICITY": 8.25e-05, "INCLINATION": 98.7469, "RA_OF_ASC_NODE": 356.2482, "ARG_OF_PERICENTER": 202.5087, "MEAN_ANOMALY": 157.6053, "EPHEMERIS_TYPE": 0, "CLASSIFICATION_TYPE": "U", "NORAD_CAT_ID": 49008, "ELEMENT_SET_NO": 999, "REV_AT_EPOCH": 23141, "BSTAR": 5.8973e-05, "MEAN_MOTION_DOT": 8.1e-07, "MEAN_MOTION_DDOT": 0}, "tle": {"line1": "1 49008U 21062A   25355.83518169  .00000081  00000+0  58973-4 0  9997", "line2": "2 49008  98.7469 356.2482 0000825 202.5087 157.6053 14.19881497231415"}}, "geometry": {"type": "Point", "coordinates": [36.19922559272884, -76.40720573695509]}}, {"type": "Feature", "properties": {"norad_id": 51850, "name": "GOES 18", "group": "weather", "lat": 0.00208332299747699, "lon": 41.314787244419726, "alt_km": 35786.011847106645, "timestamp": "2025-12-22T05:49:03.124992+00:00", "meta": {"OBJECT_NAME": "GOES 18", "OBJECT_ID": "2022-021A", "EPOCH": "2025-12-21T15:58:16.817088", "MEAN_MOTION": 1.00270605, "ECCENTRICITY": 3.4e-05, "INCLINATION": 0.015, "RA_OF_ASC_NODE": 120.8111, "ARG_OF_PERICENTER": 204.6624, "MEAN_ANOMALY": 227.5856, "EPHEMERIS_TYPE": 0, "CLASSIFICATION_TYPE": "U", "NORAD_CAT_ID": 51850, "ELEMENT_SET_NO": 999, "REV_AT_EPOCH": 481, "BSTAR": 0, "MEAN_MOTION_DOT": 1.19e-06, "MEAN_MOTION_DDOT": 0}, "tle": {"line1": "1 51850U 22021A   25355.66547242  .00000119  00000+0  00000+0 0  9991", "line2": "2 51850   0.0150 120.8111 0000340 204.6624 227.5856  1.00270605  4811"}}, "geometry": {"type": "Point", "coordinates": [41.314787244419726, 0.00208332299747699]}}]}